#aV2014  2 17  0  0  0.00000000     288 DD+AD WGS84 FIT  NGA
## 1780  86400.00000000   300.00000000 56705 0.0000000000000
+   31     1  2  3  4  5  6  7  8  9 10 11 12 13 14 15 16 17
+         18 19 20 21 22 23 24 25 26 27 28 29 31 32  0  0  0
+          0  0  0  0  0  0  0  0  0  0  0  0  0  0  0  0  0
+          0  0  0  0  0  0  0  0  0  0  0  0  0  0  0  0  0
+          0  0  0  0  0  0  0  0  0  0  0  0  0  0  0  0  0
++         2  2  2  2  2  2  2  2  2  2  2  2  2  2  2  2  2
++         2  2  2  2  2  2  2  2  2  2  2  2  2  2  0  0  0
++         0  0  0  0  0  0  0  0  0  0  0  0  0  0  0  0  0
++         0  0  0  0  0  0  0  0  0  0  0  0  0  0  0  0  0
++         0  0  0  0  0  0  0  0  0  0  0  0  0  0  0  0  0
%c cc cc ccc ccc cccc cccc cccc cccc ccccc ccccc ccccc ccccc
%c cc cc ccc ccc cccc cccc cccc cccc ccccc ccccc ccccc ccccc
%f  0.0000000  0.000000000  0.00000000000  0.000000000000000
%f  0.0000000  0.000000000  0.00000000000  0.000000000000000
%i    0    0    0    0      0      0      0      0         0
%i    0    0    0    0      0      0      0      0         0
/*      NGA, ST. LOUIS,MO.                                  
/*   EPHEMERIS COMPUTED FROM  1 DAYS OF DATA                
/*   EPOCHA SMOOTHER                                       
/* CCCCCCCCCCCCCCCCCCCCCCCCCCCCCCCCCCCCCCCCCCCCCCCCCCCCCCCCC
*  2014  2 17 16  5  0.00000000
P  1 -13455.451419  22821.673894      9.904728     -0.279138                    
V  1  -2486.717287  -1524.545944  31844.377220      0.021192                    
P  2  18377.748878  -7106.684033 -17303.538907    479.189258                    
V  2  -8918.321811  21072.381922 -18353.111268      0.021767                    
P  3 -16677.471433   2600.768475  20005.293210    327.025982                    
V  3 -15624.832389 -21635.285752  -9784.290017      0.050815                    
P  4  12934.542688   9217.333778 -21585.928530      5.609919                    
V  4 -13604.363930  23077.293554   1968.841535      0.002114                    
P  5  26023.968673  -3308.323401   4635.698938   -388.133864                    
V  5   5919.604962   3043.781453 -30620.402589      0.016096                    
P  6 -19336.634156  -6453.698203  17283.951459    279.160055                    
V  6 -10576.984648 -19086.387188 -18607.870573      0.143456                    
P  7  -2954.142977  22476.507095  13636.138611    314.927637                    
V  7 -10829.355535  13653.871891 -25289.330690      0.041604                    
P  8   5405.135444  15320.912197  21008.078943     11.967978                    
V  8 -16602.127338  20555.177476 -11378.685331      0.000988                    
P  9   7010.458889  14825.338050  20326.191488    306.197237                    
V  9 -14458.329461  22822.371487 -11521.855176      0.027456                    
P 10  21402.749909   9852.724969 -12999.012415   -114.698049                    
V 10 -15894.455854   2031.655579 -24860.543669     -0.015698                    
P 11 -12589.459495  20948.819048   9648.547471   -465.105762                    
V 11  -1771.877924 -13856.195833  26682.486567     -0.033145                    
P 12  15337.561811 -11495.874575 -18338.408135    187.030570                    
V 12  23129.690970   2197.470572  18229.818364      0.023479                    
P 13   3419.245152  24381.717512  -9904.672491     28.655380                    
V 13  -6908.267989 -10513.818924 -28800.877412     -0.038596                    
P 14 -14627.691044 -21421.998509  -5833.347313    197.513722                    
V 14  -1188.078110  -7903.305797  30733.509828     -0.031231                    
P 15  10848.823080 -11859.254100  21058.796403   -163.649733                    
V 15  14811.690360  22574.217806   5358.166515     -0.020764                    
P 16 -26137.032560   1946.809373   5327.964863   -231.145692                    
V 16  -6611.740001  -2035.249163 -31154.914785      0.015276                    
P 17  15759.539700  20354.772880  -6770.491321    -69.100525                    
V 17   1995.257416   8947.233377  30191.309725     -0.033932                    
P 18  -5572.971576 -15830.628246  21068.541818    302.463503                    
V 18  25856.348995   -644.740590   6151.673786      0.021372                    
P 19 -11989.986039   9616.421253  21488.282086   -439.471715                    
V 19 -11956.809775 -24915.889324   4882.778851     -0.024363                    
P 20 -12688.075200  14539.820374 -18409.021285    162.557913                    
V 20 -23209.233457   -672.783931  15702.320049      0.033651                    
P 21     19.453642 -22158.398976  14901.948934   -344.503284                    
V 21  11510.512674 -14305.324953 -22692.671870     -0.021337                    
P 22 -18073.807653 -11873.696458  15720.438491    213.979825                    
V 22  19657.057165  -2533.484640  20795.358795      0.023042                    
P 23  -4680.191697  18383.388392 -18324.599639      3.157081                    
V 23 -13140.096475 -19741.192406 -16761.913680     -0.032303                    
P 24  15828.402318 -20672.739896   4988.021742    -23.478115                    
V 24   -621.883856   6976.390988  30897.738437     -0.006775                    
P 25   1557.717807 -14895.840092 -21987.066489     14.994112                    
V 25  27740.114608    205.759990   1952.561983      0.017903                    
P 26  16108.120356   2126.180779  20424.554885    162.377734                    
V 26  10518.195172  25233.323439 -10286.717931     -0.108760                    
P 27 -17597.696648  -3138.365255  19655.338497    -18.900759                    
V 27 -11407.026142 -22216.214614 -13720.408893     -0.010484                    
P 28  14699.105813  13207.426002  18423.172905    333.256434                    
V 28 -22068.166799   -547.949132  18484.483789      0.029252                    
P 29  -2506.010933 -23488.321278 -12144.510143    511.728864                    
V 29   8869.968300  12841.385405 -26525.026542      0.029524                    
P 31 -14120.639883  -5013.428670 -21794.944605    333.305217                    
V 31  14668.329089 -23819.295947  -3692.329536      0.002677                    
P 32 -22740.215459   6292.267096 -11562.996828   -484.041242                    
V 32 -14674.584337  -4481.706371  26803.799091      0.064965                    
EOF
